{
"type": "FeatureCollection",
"name": "demo_fishnet_grid",
"crs": { "type": "name", "properties": { "name": "urn:ogc:def:crs:OGC:1.3:CRS84" } },
"features": [
{ "type": "Feature", "properties": { "grid_id": "GRID-R000C000", "kepadatan_penduduk": 3999.9926309948478 }, "geometry": { "type": "Polygon", "coordinates": [ [ [ 107.00271051602013, -6.222065857166138 ], [ 107.002700246669875, -6.219353651674179 ], [ 106.999990032448864, -6.219363919353609 ], [ 107.000000287924408, -6.2220761293572 ], [ 107.00271051602013, -6.222065857166138 ] ] ] } },
{ "type": "Feature", "properties": { "grid_id": "GRID-R000C001", "kepadatan_penduduk": 2000.0006861179584 }, "geometry": { "type": "Polygon", "coordinates": [ [ [ 107.005420739550715, -6.222055571087004 ], [ 107.00541045632589, -6.219343370112774 ], [ 107.002700246669875, -6.219353651674179 ], [ 107.00271051602013, -6.222065857166138 ], [ 107.005420739550715, -6.222055571087004 ] ] ] } },
{ "type": "Feature", "properties": { "grid_id": "GRID-R000C002", "kepadatan_penduduk": 0.0 }, "geometry": { "type": "Polygon", "coordinates": [ [ [ 107.008130958510037, -6.22204527111991 ], [ 107.008120661410715, -6.219333074669513 ], [ 107.00541045632589, -6.219343370112774 ], [ 107.005420739550715, -6.222055571087004 ], [ 107.008130958510037, -6.22204527111991 ] ] ] } },
{ "type": "Feature", "properties": { "grid_id": "GRID-R000C003", "kepadatan_penduduk": 400.0 }, "geometry": { "type": "Polygon", "coordinates": [ [ [ 107.010841172891887, -6.222034957264972 ], [ 107.010830861918222, -6.219322765344506 ], [ 107.008120661410715, -6.219333074669513 ], [ 107.008130958510037, -6.22204527111991 ], [ 107.010841172891887, -6.222034957264972 ] ] ] } },
{ "type": "Feature", "properties": { "grid_id": "GRID-R000C004", "kepadatan_penduduk": 400.0 }, "geometry": { "type": "Polygon", "coordinates": [ [ [ 107.01355138269011, -6.222024629522307 ], [ 107.01354105784219, -6.219312442137871 ], [ 107.010830861918222, -6.219322765344506 ], [ 107.010841172891887, -6.222034957264972 ], [ 107.01355138269011, -6.222024629522307 ] ] ] } },
{ "type": "Feature", "properties": { "grid_id": "GRID-R000C005", "kepadatan_penduduk": 400.0 }, "geometry": { "type": "Polygon", "coordinates": [ [ [ 107.016261587898555, -6.222014287892028 ], [ 107.016251249176506, -6.219302105049722 ], [ 107.01354105784219, -6.219312442137871 ], [ 107.01355138269011, -6.222024629522307 ], [ 107.016261587898555, -6.222014287892028 ] ] ] } },
{ "type": "Feature", "properties": { "grid_id": "GRID-R000C006", "kepadatan_penduduk": 400.0 }, "geometry": { "type": "Polygon", "coordinates": [ [ [ 107.018971788511024, -6.222003932374251 ], [ 107.01896143591496, -6.219291754080174 ], [ 107.016251249176506, -6.219302105049722 ], [ 107.016261587898555, -6.222014287892028 ], [ 107.018971788511024, -6.222003932374251 ] ] ] } },
{ "type": "Feature", "properties": { "grid_id": "GRID-R000C007", "kepadatan_penduduk": 400.0 }, "geometry": { "type": "Polygon", "coordinates": [ [ [ 107.021681984521393, -6.221993562969091 ], [ 107.021671618051428, -6.219281389229343 ], [ 107.01896143591496, -6.219291754080174 ], [ 107.018971788511024, -6.222003932374251 ], [ 107.021681984521393, -6.221993562969091 ] ] ] } },
{ "type": "Feature", "properties": { "grid_id": "GRID-R001C000", "kepadatan_penduduk": 4000.0015414684367 }, "geometry": { "type": "Polygon", "coordinates": [ [ [ 107.002700246669875, -6.219353651674179 ], [ 107.002689981884643, -6.216641445887624 ], [ 106.999979781532176, -6.216651709055466 ], [ 106.999990032448864, -6.219363919353609 ], [ 107.002700246669875, -6.219353651674179 ] ] ] } },
{ "type": "Feature", "properties": { "grid_id": "GRID-R001C001", "kepadatan_penduduk": 2000.0051414187581 }, "geometry": { "type": "Polygon", "coordinates": [ [ [ 107.00541045632589, -6.219343370112774 ], [ 107.005400177672229, -6.216631168843909 ], [ 107.002689981884643, -6.216641445887624 ], [ 107.002700246669875, -6.219353651674179 ], [ 107.00541045632589, -6.219343370112774 ] ] ] } },
{ "type": "Feature", "properties": { "grid_id": "GRID-R001C002", "kepadatan_penduduk": 0.0 }, "geometry": { "type": "Polygon", "coordinates": [ [ [ 107.008120661410715, -6.219333074669513 ], [ 107.008110368888737, -6.216620877924433 ], [ 107.005400177672229, -6.216631168843909 ], [ 107.00541045632589, -6.219343370112774 ], [ 107.008120661410715, -6.219333074669513 ] ] ] } },
{ "type": "Feature", "properties": { "grid_id": "GRID-R001C003", "kepadatan_penduduk": 400.0 }, "geometry": { "type": "Polygon", "coordinates": [ [ [ 107.010830861918222, -6.219322765344506 ], [ 107.010820555528042, -6.216610573129313 ], [ 107.008110368888737, -6.216620877924433 ], [ 107.008120661410715, -6.219333074669513 ], [ 107.010830861918222, -6.219322765344506 ] ] ] } },
{ "type": "Feature", "properties": { "grid_id": "GRID-R001C004", "kepadatan_penduduk": 400.0 }, "geometry": { "type": "Polygon", "coordinates": [ [ [ 107.01354105784219, -6.219312442137871 ], [ 107.013530737583949, -6.216600254458664 ], [ 107.010820555528042, -6.216610573129313 ], [ 107.010830861918222, -6.219322765344506 ], [ 107.01354105784219, -6.219312442137871 ] ] ] } },
{ "type": "Feature", "properties": { "grid_id": "GRID-R001C005", "kepadatan_penduduk": 400.0 }, "geometry": { "type": "Polygon", "coordinates": [ [ [ 107.016251249176506, -6.219302105049722 ], [ 107.01624091505029, -6.2165899219126 ], [ 107.013530737583949, -6.216600254458664 ], [ 107.01354105784219, -6.219312442137871 ], [ 107.016251249176506, -6.219302105049722 ] ] ] } },
{ "type": "Feature", "properties": { "grid_id": "GRID-R001C006", "kepadatan_penduduk": 400.0 }, "geometry": { "type": "Polygon", "coordinates": [ [ [ 107.01896143591496, -6.219291754080174 ], [ 107.018951087920925, -6.216579575491236 ], [ 107.01624091505029, -6.2165899219126 ], [ 107.016251249176506, -6.219302105049722 ], [ 107.01896143591496, -6.219291754080174 ] ] ] } },
{ "type": "Feature", "properties": { "grid_id": "GRID-R001C007", "kepadatan_penduduk": 400.0 }, "geometry": { "type": "Polygon", "coordinates": [ [ [ 107.021671618051428, -6.219281389229343 ], [ 107.021661256189645, -6.216569215194689 ], [ 107.018951087920925, -6.216579575491236 ], [ 107.01896143591496, -6.219291754080174 ], [ 107.021671618051428, -6.219281389229343 ] ] ] } },
{ "type": "Feature", "properties": { "grid_id": "GRID-R002C000", "kepadatan_penduduk": 0.0 }, "geometry": { "type": "Polygon", "coordinates": [ [ [ 107.002689981884643, -6.216641445887624 ], [ 107.002679721664293, -6.213929239806604 ], [ 106.999969535174188, -6.213939498462902 ], [ 106.999979781532176, -6.216651709055466 ], [ 107.002689981884643, -6.216641445887624 ] ] ] } },
{ "type": "Feature", "properties": { "grid_id": "GRID-R002C001", "kepadatan_penduduk": 0.0 }, "geometry": { "type": "Polygon", "coordinates": [ [ [ 107.005400177672229, -6.216631168843909 ], [ 107.005389903589617, -6.213918967280529 ], [ 107.002679721664293, -6.213929239806604 ], [ 107.002689981884643, -6.216641445887624 ], [ 107.005400177672229, -6.216631168843909 ] ] ] } },
{ "type": "Feature", "properties": { "grid_id": "GRID-R002C002", "kepadatan_penduduk": 0.0 }, "geometry": { "type": "Polygon", "coordinates": [ [ [ 107.008110368888737, -6.216620877924433 ], [ 107.008100080944004, -6.213908680884798 ], [ 107.005389903589617, -6.213918967280529 ], [ 107.005400177672229, -6.216631168843909 ], [ 107.008110368888737, -6.216620877924433 ] ] ] } },
{ "type": "Feature", "properties": { "grid_id": "GRID-R002C003", "kepadatan_penduduk": 400.0 }, "geometry": { "type": "Polygon", "coordinates": [ [ [ 107.010820555528042, -6.216610573129313 ], [ 107.01081025372126, -6.213898380619521 ], [ 107.008100080944004, -6.213908680884798 ], [ 107.008110368888737, -6.216620877924433 ], [ 107.010820555528042, -6.216610573129313 ] ] ] } },
{ "type": "Feature", "properties": { "grid_id": "GRID-R002C004", "kepadatan_penduduk": 400.0 }, "geometry": { "type": "Polygon", "coordinates": [ [ [ 107.013530737583949, -6.216600254458664 ], [ 107.013520421915274, -6.213888066484813 ], [ 107.01081025372126, -6.213898380619521 ], [ 107.010820555528042, -6.216610573129313 ], [ 107.013530737583949, -6.216600254458664 ] ] ] } },
{ "type": "Feature", "properties": { "grid_id": "GRID-R002C005", "kepadatan_penduduk": 400.0 }, "geometry": { "type": "Polygon", "coordinates": [ [ [ 107.01624091505029, -6.2165899219126 ], [ 107.016230585519807, -6.21387773848079 ], [ 107.013520421915274, -6.213888066484813 ], [ 107.013530737583949, -6.216600254458664 ], [ 107.01624091505029, -6.2165899219126 ] ] ] } },
{ "type": "Feature", "properties": { "grid_id": "GRID-R002C006", "kepadatan_penduduk": 400.0 }, "geometry": { "type": "Polygon", "coordinates": [ [ [ 107.018951087920925, -6.216579575491236 ], [ 107.018940744528763, -6.213867396607565 ], [ 107.016230585519807, -6.21387773848079 ], [ 107.01624091505029, -6.2165899219126 ], [ 107.018951087920925, -6.216579575491236 ] ] ] } },
{ "type": "Feature", "properties": { "grid_id": "GRID-R002C007", "kepadatan_penduduk": 400.0 }, "geometry": { "type": "Polygon", "coordinates": [ [ [ 107.021661256189645, -6.216569215194689 ], [ 107.021650898935931, -6.213857040865258 ], [ 107.018940744528763, -6.213867396607565 ], [ 107.018951087920925, -6.216579575491236 ], [ 107.021661256189645, -6.216569215194689 ] ] ] } },
{ "type": "Feature", "properties": { "grid_id": "GRID-R003C000", "kepadatan_penduduk": 0.0 }, "geometry": { "type": "Polygon", "coordinates": [ [ [ 107.002679721664293, -6.213929239806604 ], [ 107.002669466008726, -6.211217033431244 ], [ 106.999959293374829, -6.211227287576042 ], [ 106.999969535174188, -6.213939498462902 ], [ 107.002679721664293, -6.213929239806604 ] ] ] } },
{ "type": "Feature", "properties": { "grid_id": "GRID-R003C001", "kepadatan_penduduk": 0.0 }, "geometry": { "type": "Polygon", "coordinates": [ [ [ 107.005389903589617, -6.213918967280529 ], [ 107.00537963407794, -6.211206765422769 ], [ 107.002669466008726, -6.211217033431244 ], [ 107.002679721664293, -6.213929239806604 ], [ 107.005389903589617, -6.213918967280529 ] ] ] } },
{ "type": "Feature", "properties": { "grid_id": "GRID-R003C002", "kepadatan_penduduk": 0.0 }, "geometry": { "type": "Polygon", "coordinates": [ [ [ 107.008100080944004, -6.213908680884798 ], [ 107.008089797576361, -6.211196483550736 ], [ 107.00537963407794, -6.211206765422769 ], [ 107.005389903589617, -6.213918967280529 ], [ 107.008100080944004, -6.213908680884798 ] ] ] } },
{ "type": "Feature", "properties": { "grid_id": "GRID-R003C003", "kepadatan_penduduk": 400.0 }, "geometry": { "type": "Polygon", "coordinates": [ [ [ 107.01081025372126, -6.213898380619521 ], [ 107.010799956497763, -6.211186187815256 ], [ 107.008089797576361, -6.211196483550736 ], [ 107.008100080944004, -6.213908680884798 ], [ 107.01081025372126, -6.213898380619521 ] ] ] } },
{ "type": "Feature", "properties": { "grid_id": "GRID-R003C004", "kepadatan_penduduk": 400.0 }, "geometry": { "type": "Polygon", "coordinates": [ [ [ 107.013520421915274, -6.213888066484813 ], [ 107.013510110836023, -6.211175878216445 ], [ 107.010799956497763, -6.211186187815256 ], [ 107.01081025372126, -6.213898380619521 ], [ 107.013520421915274, -6.213888066484813 ] ] ] } },
{ "type": "Feature", "properties": { "grid_id": "GRID-R003C005", "kepadatan_penduduk": 400.0 }, "geometry": { "type": "Polygon", "coordinates": [ [ [ 107.016230585519807, -6.21387773848079 ], [ 107.016220260584944, -6.21116555475442 ], [ 107.013510110836023, -6.211175878216445 ], [ 107.013520421915274, -6.213888066484813 ], [ 107.016230585519807, -6.21387773848079 ] ] ] } },
{ "type": "Feature", "properties": { "grid_id": "GRID-R003C006", "kepadatan_penduduk": 400.0 }, "geometry": { "type": "Polygon", "coordinates": [ [ [ 107.018940744528763, -6.213867396607565 ], [ 107.018930405738374, -6.211155217429291 ], [ 107.016220260584944, -6.21116555475442 ], [ 107.016230585519807, -6.21387773848079 ], [ 107.018940744528763, -6.213867396607565 ] ] ] } },
{ "type": "Feature", "properties": { "grid_id": "GRID-R003C007", "kepadatan_penduduk": 400.0 }, "geometry": { "type": "Polygon", "coordinates": [ [ [ 107.021650898935931, -6.213857040865258 ], [ 107.021640546290143, -6.211144866241177 ], [ 107.018930405738374, -6.211155217429291 ], [ 107.018940744528763, -6.213867396607565 ], [ 107.021650898935931, -6.213857040865258 ] ] ] } }
]
}
