{"type":"FeatureCollection","features":[{"type":"Feature","properties":{"name":"Kota Bekasi","role":"boundary","sumber":"BIG RBI 25K KUGI50 2022-12-31 (tanahair.indonesia.go.id)","catatan":"Dissolve 56 kelurahan RBI 25K \u2014 aset build-time, regenerate hanya jika batas RBI berubah."},"geometry":{"type":"Polygon","coordinates":[[[106.93434655000004,-6.38321835399995],[106.93124531300003,-6.383788319999951],[106.93072313400006,-6.385332730999949],[106.92936265400004,-6.386250673999939],[106.92749279900005,-6.386516030999928],[106.92705883000008,-6.385564624999972],[106.92656881900007,-6.385484169999927],[106.92622971400004,-6.386225887999956],[106.92644024500004,-6.387852955999961],[106.92594949000005,-6.388341594999929],[106.92532522000005,-6.387975540999946],[106.92541453800004,-6.386282760999961],[106.92475754200007,-6.386116572999981],[106.92418672000008,-6.386935625999968],[106.92420203100005,-6.387833821999948],[106.92330833000005,-6.388655996999944],[106.92327731300009,-6.389901782999971],[106.92233498800005,-6.388824530999955],[106.92181866000004,-6.388869517999979],[106.92220670000006,-6.390201454999954],[106.92087255700005,-6.392930623999973],[106.92285904200008,-6.394303949999937],[106.92158092400007,-6.394747928999948],[106.92159937700006,-6.396188304999953],[106.92119593200005,-6.397007929999972],[106.91948209300006,-6.395842417999972],[106.91861382900004,-6.396011727999962],[106.91823494000005,-6.395535433999953],[106.91674178000005,-6.395639579999966],[106.91461361100005,-6.395143812999947],[106.91346097200005,-6.396346877999974],[106.91226432500008,-6.396037878999948],[106.91219483700007,-6.396385479999935],[106.91053511700005,-6.396247436999943],[106.91052268900006,-6.396764191999978],[106.91002129100008,-6.396776102999979],[106.90989728700004,-6.39720704299998],[106.90898081600005,-6.397167388999946],[106.90888142800009,-6.397580309999967],[106.90784393600006,-6.397467522999932],[106.90632701800007,-6.396551482999939],[106.90538502300006,-6.397312416999966],[106.90338332300007,-6.397354921999977],[106.90321643900006,-6.398130637999941],[106.90090177400003,-6.398034601999939],[106.90007162400008,-6.398524403999943],[106.89942917000008,-6.398430177999956],[106.89891235100004,-6.39737084199993],[106.89841409200005,-6.39740225099996],[106.89782700000006,-6.39670499999994],[106.89778300000006,-6.39597299999997],[106.89849200000003,-6.395536999999933],[106.89855200000005,-6.394469999999956],[106.89962500000007,-6.394917999999962],[106.90032200000007,-6.39434499999993],[106.90109500100004,-6.394622999999967],[106.90269700000005,-6.393902999999966],[106.90437600000007,-6.39160899899997],[106.90412400000008,-6.389222999999959],[106.90352700000005,-6.388212999999951],[106.90449300000006,-6.387177999999949],[106.90390300100006,-6.386474999999962],[106.90506300000004,-6.38438199999996],[106.90389800000008,-6.380263999999954],[106.90463700000004,-6.379908999999941],[106.90451300000007,-6.379402999999968],[106.90586900000005,-6.378646999999944],[106.90650500000004,-6.37764999999996],[106.90765400000004,-6.377672999999959],[106.90820300000007,-6.376703999999961],[106.90759600000007,-6.375928999999928],[106.90830400000004,-6.375554999999963],[106.90861400000006,-6.374586999999963],[106.90790900000007,-6.373955999999964],[106.90859800000004,-6.373022999999932],[106.90779200000009,-6.372473999999954],[106.90811100000008,-6.372038999999972],[106.90789300000006,-6.371089999999981],[106.91034400000007,-6.370131999999956],[106.91067500000008,-6.367878999999959],[106.91197500100009,-6.367367998999953],[106.91198900000006,-6.368127999999956],[106.91247300000003,-6.368378999999948],[106.91265000000004,-6.367383999999959],[106.91409500000009,-6.366365999999971],[106.91502997700007,-6.363978054999961],[106.91489101700006,-6.36323185599997],[106.91617782900005,-6.362938705999966],[106.91472540600006,-6.361697579999941],[106.91545637700005,-6.360445030999926],[106.91427873400005,-6.360186478999935],[106.91445386200007,-6.35915855199994],[106.91360391900008,-6.358836848999942],[106.91481173300008,-6.358267681999962],[106.91472226500008,-6.357603335999954],[106.91541249900007,-6.356745587999967],[106.91609778400004,-6.356350121999981],[106.91714141600005,-6.356474329999969],[106.91676593700004,-6.355674830999931],[106.91542106500003,-6.354969557999937],[106.91601775100008,-6.354557173999979],[106.91614882800008,-6.35378418199997],[106.91681222100004,-6.353652216999933],[106.91731163400004,-6.352988436999965],[106.91670846100004,-6.35267986499997],[106.91682838600008,-6.351756633999969],[106.91649716500007,-6.351398762999963],[106.91782464200008,-6.350444479999965],[106.91693924500004,-6.349199307999925],[106.91611690300005,-6.348889501999963],[106.91724063500004,-6.347877215999972],[106.91590433000005,-6.346329614999945],[106.91721493700004,-6.346289639999952],[106.91696223800005,-6.345749977999958],[106.91728489300004,-6.343806909999955],[106.91948351500008,-6.343538506999948],[106.91854843700008,-6.342373865999946],[106.91889393400004,-6.34155057199996],[106.91958493000004,-6.341604823999944],[106.91970771000007,-6.341302156999973],[106.91905478600006,-6.340043897999976],[106.91819342100007,-6.339568004999933],[106.91828567500005,-6.339166355999964],[106.91958343300007,-6.33865738999998],[106.91908024800006,-6.337176959999965],[106.91966749900007,-6.336741994999954],[106.91971312100009,-6.333660624999936],[106.92060875000004,-6.333008651999933],[106.92095424800004,-6.330901401999938],[106.92052118600009,-6.330426460999945],[106.92003697200005,-6.327679075999981],[106.91831938400009,-6.327251688999979],[106.91923460900006,-6.326339512999937],[106.91903830300004,-6.325262806999945],[106.92056269300008,-6.32503922099994],[106.92152494700008,-6.324142639999934],[106.92165629300007,-6.322857730999942],[106.92135362600004,-6.321962577999955],[106.92055555500008,-6.32126587099998],[106.92118658800007,-6.319294249999928],[106.92071688200008,-6.318363404999957],[106.92202606100005,-6.317576754999948],[106.92224449600008,-6.316397493999943],[106.92192041300007,-6.315680800999928],[106.92281699400007,-6.314253123999947],[106.92232587400008,-6.31396901599993],[106.92183618000007,-6.312542766999968],[106.92062408300006,-6.312035941999966],[106.92121371300004,-6.309377607999977],[106.92065263700005,-6.308205485999963],[106.92117659400009,-6.30782572399994],[106.92095815900007,-6.307254652999973],[106.92155921100004,-6.307425973999955],[106.92142501000006,-6.305524308999964],[106.92176765200009,-6.304961804999948],[106.92139360100003,-6.304576331999954],[106.92177907300004,-6.303389932999948],[106.92136933000006,-6.303282856999942],[106.92061266200005,-6.301663871999949],[106.92107522900005,-6.301281253999946],[106.92072497200007,-6.300234290999981],[106.92039184800007,-6.300013476999936],[106.91930110300007,-6.300717797999937],[106.91898701400004,-6.300436069999932],[106.91913652300008,-6.298957583999936],[106.91801579700007,-6.299727100999974],[106.91767743800006,-6.298033876999966],[106.91700214700006,-6.298202342999957],[106.91525467100007,-6.297085899999956],[106.91467360600006,-6.297180125999944],[106.91441376900008,-6.29808527299997],[106.91362854700009,-6.298150945999964],[106.91366281100005,-6.298869067999931],[106.91299751400004,-6.298889054999961],[106.91186964900004,-6.298183782999956],[106.91186251100004,-6.296430595999936],[106.91112868500005,-6.295980877999966],[106.91244500300007,-6.294578899999976],[106.91028492800007,-6.29413631999995],[106.91039771500004,-6.292955630999927],[106.91099162800003,-6.293089832999954],[106.91173544800006,-6.29191342699994],[106.91132998800003,-6.291386614999965],[106.91127573600005,-6.292281767999952],[106.91074749600006,-6.292204672999958],[106.91045196700009,-6.291396607999957],[106.91181254200006,-6.290253038999936],[106.91137424600004,-6.290213064999932],[106.91084743300007,-6.290816971999959],[106.91059901700004,-6.289794754999946],[106.90943403300008,-6.290727027999935],[106.91008933700004,-6.289596307999943],[106.90969898600008,-6.288585274999946],[106.91012300600005,-6.28802705399994],[106.90998166600008,-6.287363183999958],[106.91052846600007,-6.286973427999953],[106.90949911100006,-6.286517999999944],[106.91008731400007,-6.285904098999936],[106.90898800300005,-6.285537185999942],[106.90851687000008,-6.28282031699996],[106.90793437800005,-6.282439126999975],[106.90895088400003,-6.280872965999947],[106.90860253100004,-6.278992715999948],[106.90934356200006,-6.275932312999942],[106.90913797700006,-6.274387566999962],[106.91006311100006,-6.272701480999956],[106.90964623000008,-6.272233202999928],[106.90940495200005,-6.272662932999936],[106.90855691200005,-6.272831398999926],[106.90838844600006,-6.272007629999962],[106.90707783900007,-6.27227032199994],[106.90656244800005,-6.271602169999937],[106.90612986200006,-6.271754930999975],[106.90569156500004,-6.271312350999949],[106.90549740100005,-6.270307266999964],[106.90424104600004,-6.270335820999946],[106.90492490300005,-6.269176546999972],[106.90562874800008,-6.268829621999942],[106.90553737600004,-6.267768857999954],[106.90490634300005,-6.267670347999967],[106.90507623700006,-6.26646253399997],[106.90456655600008,-6.266165576999981],[106.90500057000008,-6.265543109999953],[106.90477071400005,-6.264657950999947],[106.90529895400005,-6.264526604999958],[106.90505053900006,-6.263377324999965],[106.90555879100003,-6.263327355999934],[106.90434954900007,-6.26205244099998],[106.90535653700005,-6.260236435999957],[106.91040949200004,-6.258042787999955],[106.91009000000008,-6.25539699999996],[106.91143989500006,-6.255470633999948],[106.91197559300008,-6.255090672999927],[106.91303746500006,-6.256098953999981],[106.91475918000003,-6.256210391999957],[106.91477407500008,-6.256932689999928],[106.91561164500007,-6.256962432999956],[106.91657207500003,-6.256120180999972],[106.91696113900008,-6.256283222999968],[106.91712919000008,-6.254838335999978],[106.91826773400004,-6.254869893999967],[106.91831651300004,-6.253792949999934],[106.91870079500006,-6.253813175999937],[106.91857706300004,-6.25257823499993],[106.91760545500006,-6.252311038999949],[106.91782105800007,-6.251779189999979],[106.91924364100004,-6.25117834699995],[106.92051795600008,-6.251219143999947],[106.92038805600004,-6.252981666999972],[106.92176444400008,-6.255102805999968],[106.92505078000005,-6.25432779199997],[106.92568265600005,-6.254750810999951],[106.92574154700009,-6.254279082999972],[106.92681095600005,-6.254515283999979],[106.92721255000004,-6.254085731999964],[106.93095761700005,-6.254275416999974],[106.93111124400008,-6.253610758999969],[106.93478301700009,-6.253661415999943],[106.93516297700006,-6.253241917999958],[106.93581569400004,-6.253501582999945],[106.93585659000007,-6.253127702999962],[106.94083422400007,-6.253585104999956],[106.94108406800007,-6.253219857999966],[106.94160636000004,-6.253290051999954],[106.94176583300003,-6.252671499999963],[106.94343049900004,-6.25276581199995],[106.94348998600009,-6.252389380999944],[106.94400252100007,-6.252396328999964],[106.94373288900005,-6.249356837999926],[106.94442721600007,-6.24667042599998],[106.94406000000004,-6.246591527999954],[106.94400894600005,-6.245314489999942],[106.94498913500007,-6.245498451999936],[106.94491449900005,-6.243798961999971],[106.94370763700005,-6.243834177999929],[106.94361871700005,-6.239167694999935],[106.94280208600009,-6.238690850999944],[106.94266341100007,-6.23758801799994],[106.94451653500005,-6.23668001599998],[106.94553471600005,-6.236871988999951],[106.94703286500004,-6.230062090999979],[106.94687772400005,-6.228263217999938],[106.94723654600006,-6.226396768999962],[106.94862918600006,-6.222378756999944],[106.94975017700006,-6.220619301999932],[106.95078762200006,-6.219347717999938],[106.95149289400007,-6.219443847999969],[106.95159800000005,-6.218946999999957],[106.95378991900009,-6.219205568999939],[106.95362802800008,-6.21795353999994],[106.95406465900004,-6.217481216999943],[106.95498432100004,-6.217412212999932],[106.95703541600005,-6.21814984599996],[106.95761124600006,-6.217767941999966],[106.95823823400008,-6.216578211999945],[106.95902318000009,-6.212338408999926],[106.96027953600009,-6.212334839999926],[106.96032079600008,-6.211778045999949],[106.96133713900008,-6.211693582999942],[106.96282073300006,-6.212170664999974],[106.96297896700008,-6.211115373999974],[106.96511929200005,-6.207897152999976],[106.96623819400008,-6.20692921999995],[106.96633337200007,-6.206224898999949],[106.96585272100003,-6.205808017999971],[106.96631148100005,-6.205272162999961],[106.96569472500005,-6.204868605999934],[106.96652468100007,-6.203078299999959],[106.96606418500005,-6.201124540999956],[106.96756380100004,-6.198645536999948],[106.97051846100004,-6.197898731999942],[106.97001806000009,-6.195337871999925],[106.97058675100004,-6.19521175999995],[106.97063703500004,-6.192121590999932],[106.97140629700004,-6.192461158999947],[106.97213961900007,-6.190970390999951],[106.97195313900005,-6.189560666999966],[106.97300405900006,-6.18944171399994],[106.97321065600005,-6.185583296999937],[106.97247200000004,-6.185359999999946],[106.97319900000008,-6.18283299999996],[106.97298400000005,-6.180225999999948],[106.97339100000005,-6.179230999999959],[106.97290846500005,-6.179037597999979],[106.97300420900007,-6.174971727999946],[106.97737106400007,-6.175702890999958],[106.97909148500008,-6.175559035999982],[106.97903374200007,-6.172565495999947],[106.98027235300003,-6.172469387999968],[106.98302195600007,-6.172769104999929],[106.99139335700005,-6.172695208999926],[106.99237803400007,-6.172266294999929],[106.99610206500006,-6.172732819999965],[106.99865103900004,-6.17226218999997],[107.01064481300006,-6.172440295999934],[107.01075086300006,-6.174693727999966],[107.00981145200006,-6.174615205999942],[107.01009740200004,-6.175850871999955],[107.00979640000008,-6.17593296299998],[107.00968761900003,-6.177005720999944],[107.00666272700005,-6.177405940999961],[107.00696450700008,-6.179291425999963],[107.00678066100005,-6.179972647999932],[107.00610294600006,-6.17996883099994],[107.00588185300006,-6.181407559999968],[107.00643983600008,-6.181492624999976],[107.00660254400009,-6.182074284999942],[107.00630594400008,-6.182162799999958],[107.00632709300004,-6.183747016999973],[107.00669577100007,-6.183787491999965],[107.00675841400005,-6.18466127399995],[107.00748031200004,-6.184815040999979],[107.00697448900007,-6.188733083999978],[107.00727159300004,-6.189591342999961],[107.00641398700009,-6.193227079999929],[107.00833849500003,-6.193490248999979],[107.00963275300006,-6.193255454999928],[107.00971056200007,-6.192705084999943],[107.01032969700009,-6.192553037999971],[107.01193385000005,-6.19288961999996],[107.01164861900008,-6.19501768899994],[107.01331820300004,-6.195661110999936],[107.01377475300006,-6.195037925999941],[107.01549811900009,-6.195304070999953],[107.01539215100007,-6.196101021999937],[107.01584360300006,-6.196402137999939],[107.01634655600009,-6.198312657999963],[107.01703314300005,-6.198597806999942],[107.01825335500007,-6.200049909999962],[107.01968087500006,-6.198949685999935],[107.01994552800005,-6.196442247999926],[107.02284543900004,-6.197468055999934],[107.02374522800005,-6.197439504999977],[107.02375410800005,-6.19710398999996],[107.02472033500004,-6.197418439999978],[107.02552591000006,-6.196979774999932],[107.02721472700006,-6.197432392999929],[107.02774281100005,-6.198113608999961],[107.03005469100003,-6.19810098399995],[107.03378384100006,-6.198784046999947],[107.03360122500004,-6.202311953999981],[107.03284547900006,-6.203158703999975],[107.03303625100006,-6.204554413999972],[107.03274427000008,-6.205432341999938],[107.03397211200007,-6.206208213999958],[107.03211168400009,-6.20847820299997],[107.03368300000005,-6.210653999999977],[107.03396874500004,-6.212181073999943],[107.03336700000006,-6.213168999999937],[107.03112600000009,-6.214453999999932],[107.03083000000004,-6.215632999999968],[107.03117600000007,-6.216807999999958],[107.03296471200008,-6.219027710999967],[107.03314432300004,-6.21998765099994],[107.03180010600005,-6.220999381999945],[107.03171448900008,-6.223102767999933],[107.03104658300003,-6.223706582999966],[107.03117606600006,-6.224186161999967],[107.03026003200006,-6.226615761999938],[107.03168000000005,-6.227033999999946],[107.03398050800007,-6.226769149999939],[107.03401606100005,-6.228425390999973],[107.03449445200005,-6.228905486999963],[107.03612013300005,-6.22891375699993],[107.03841420900005,-6.230449286999942],[107.03870860800004,-6.232478367999931],[107.03960013400007,-6.232492076999961],[107.04238958900004,-6.233754355999963],[107.04149663800007,-6.246120026999961],[107.03989561800006,-6.246311201999958],[107.03893467500006,-6.247194054999966],[107.03721559400009,-6.246615131999931],[107.03535200000005,-6.246692463999978],[107.03307794900007,-6.249192008999955],[107.03077796200006,-6.24989299799995],[107.03022545100004,-6.250519747999931],[107.03034623800005,-6.251219642999956],[107.02962905600003,-6.253063065999925],[107.02873596300009,-6.252542228999971],[107.02453162600005,-6.254883805999952],[107.02383217000005,-6.256585608999956],[107.02268540600005,-6.257374609999942],[107.02002686900005,-6.263513343999932],[107.01793708700006,-6.262786902999949],[107.01680656600007,-6.264524713999947],[107.01645262100004,-6.265696598999966],[107.01717478800003,-6.268289615999947],[107.01644016100005,-6.270107305999943],[107.01787021700005,-6.27121851499993],[107.01770841400008,-6.273000730999968],[107.01659720500004,-6.27624631599997],[107.01436289100008,-6.279703672999972],[107.01408838100008,-6.282586428999934],[107.01461662100007,-6.283504900999958],[107.01406678700005,-6.286469233999981],[107.01562581000007,-6.28740150699997],[107.01538453300009,-6.289160403999972],[107.01460787700006,-6.290743697999972],[107.01546892600004,-6.291247681999948],[107.01750416100003,-6.287443011999926],[107.02220264400006,-6.280680107999956],[107.02493155500008,-6.278818151999928],[107.02674762700008,-6.279183667999973],[107.02754391700006,-6.277863686999979],[107.02819596900008,-6.277842023999938],[107.02824973500009,-6.278570453999976],[107.02904495100006,-6.27893165699993],[107.02898030900008,-6.279702589999943],[107.02990583200005,-6.280199694999965],[107.03019731600006,-6.281526244999952],[107.03150899400003,-6.281719575999944],[107.03256452300008,-6.281206920999978],[107.03300936300008,-6.281353733999936],[107.03289895600005,-6.281658304999951],[107.03553242500004,-6.282095094999932],[107.03661323300008,-6.282685417999971],[107.03789080500007,-6.284385185999952],[107.03756988200007,-6.286330315999976],[107.03830247300004,-6.286861959999953],[107.03830700000009,-6.28728099999995],[107.04020221600007,-6.287484375999952],[107.04029286600007,-6.294004384999937],[107.04112258400005,-6.295563525999967],[107.03846827700005,-6.306330475999971],[107.03979663800004,-6.306328056999973],[107.04025500000006,-6.307161999999948],[107.04117046600004,-6.307439256999942],[107.04099405300008,-6.308935100999975],[107.03987201900009,-6.308798223999929],[107.03929286200008,-6.31082755999995],[107.03873665400005,-6.310615629999972],[107.03757771700003,-6.313481842999977],[107.03699410500008,-6.315884854999979],[107.03804100000008,-6.316556999999932],[107.03770468300007,-6.317482139999981],[107.03699845700004,-6.317329563999976],[107.03654493900007,-6.31922143099996],[107.03698180800006,-6.319982381999978],[107.03672332900004,-6.320920799999954],[107.03725312000006,-6.321350602999928],[107.03653629100006,-6.321957754999971],[107.03447538400007,-6.322488077999935],[107.03397371500006,-6.323621277999962],[107.03251378600004,-6.323215564999941],[107.03137164000009,-6.324935874999937],[107.03036001100008,-6.325453272999937],[107.02979142500004,-6.32624231099993],[107.03007094600008,-6.327723066999965],[107.02896510700003,-6.33014331499993],[107.02648504700005,-6.329928750999954],[107.02650700000004,-6.329547999999932],[107.02538616900006,-6.329235517999962],[107.02342427700006,-6.329166621999946],[107.02097236600008,-6.328226909999955],[107.02079555100005,-6.327780004999966],[107.02006434300006,-6.328615829999933],[107.01971932000004,-6.328503995999938],[107.01941306500004,-6.330403463999971],[107.01732118600006,-6.329657192999946],[107.01650734400005,-6.330391037999959],[107.01563182300004,-6.332956561999936],[107.01564309600008,-6.334432958999969],[107.01519915600005,-6.334350037999968],[107.01485938500008,-6.336095185999966],[107.01436414100004,-6.335922470999947],[107.01316993700004,-6.338954903999934],[107.01249179100006,-6.339546199999972],[107.01544838200005,-6.341106119999949],[107.01460405400007,-6.342734192999956],[107.01310450800008,-6.342280123999956],[107.01298077700005,-6.342551381999954],[107.01639800000004,-6.344612999999981],[107.01511171400006,-6.345948268999962],[107.01581545600004,-6.346239647999937],[107.01551630000006,-6.347284902999945],[107.01605127600004,-6.347795408999957],[107.01564676800007,-6.349553354999955],[107.01709141400005,-6.35019676099995],[107.01748791100005,-6.351093196999955],[107.01728664300003,-6.353859188999934],[107.01756218400004,-6.354528768999955],[107.01620446400005,-6.356394742999953],[107.01633224100004,-6.357885950999958],[107.01585825200004,-6.357733189999976],[107.01566644400003,-6.357107129999974],[107.01425518600007,-6.358696133999956],[107.01296456600005,-6.35809650899995],[107.01284868600004,-6.357556656999975],[107.01072596300008,-6.357688655999937],[107.00923166200005,-6.358986056999981],[107.00857136100007,-6.359288248999974],[107.00809829100007,-6.359018076999973],[107.00764211800004,-6.360205492999967],[107.00690143600008,-6.360003474999928],[107.00673653900009,-6.360286154999926],[107.00617189300004,-6.360057726999969],[107.00668459700006,-6.358882667999978],[107.00502016500008,-6.358066512999926],[107.00561007100004,-6.35674735799995],[107.00438857700004,-6.35664815399997],[107.00501510200007,-6.355403480999939],[107.00412334500004,-6.354422476999957],[107.00194939200009,-6.353781344999959],[107.00009233200007,-6.355718684999942],[106.99971343400006,-6.355554456999926],[107.00021159000005,-6.35843753599994],[107.00079265500005,-6.358593628999927],[107.00055470800004,-6.358845851999945],[107.00086879700007,-6.359138525999981],[106.99961958000006,-6.360487679999949],[106.99889860400003,-6.360773214999938],[106.99781357000006,-6.360451987999966],[106.99705209300004,-6.359333911999954],[106.99637132900006,-6.359135108999965],[106.99567236200005,-6.359866792999981],[106.99493145000008,-6.359841340999935],[106.99451237500006,-6.360485452999967],[106.99298654500006,-6.36045868399998],[106.99166297000005,-6.362011281999969],[106.99122797000007,-6.362047479999944],[106.99100455000007,-6.36327748399998],[106.98965864100006,-6.363805934999959],[106.98822477100003,-6.363619134999965],[106.98804777000004,-6.364595777999966],[106.98710161600007,-6.36451535499998],[106.98755691400004,-6.364403095999933],[106.98757691300005,-6.363921583999968],[106.98643216500005,-6.363448109999979],[106.98546134500003,-6.363519494999934],[106.98524509600009,-6.363927484999976],[106.98434544700007,-6.363559841999972],[106.97976939900008,-6.36412568999998],[106.97993453300006,-6.363723559999926],[106.97917200000006,-6.36194699999993],[106.98088668300005,-6.360674078999978],[106.98153523500008,-6.35933629699997],[106.98121299600007,-6.358753149999927],[106.98163416100004,-6.358590394999965],[106.98180947300006,-6.357752752999943],[106.98014700000004,-6.357446999999979],[106.98000545700006,-6.356758008999975],[106.97686725300008,-6.355174619999957],[106.97702890600004,-6.353177571999936],[106.97292433300004,-6.351490840999929],[106.96990688300008,-6.349437404999946],[106.96969599900007,-6.349021998999945],[106.97236800000007,-6.347579999999937],[106.97263000000004,-6.346662999999978],[106.97002900000007,-6.346406999999942],[106.96848800000004,-6.345142998999961],[106.96805100000006,-6.343017999999972],[106.96627700000005,-6.342596999999955],[106.96615700000007,-6.342198999999937],[106.96659900000009,-6.341664999999978],[106.96906500000006,-6.341507999999976],[106.97072500000007,-6.342845998999962],[106.97147800000005,-6.342945998999937],[106.97576372600008,-6.341004791999978],[106.97601699900008,-6.339989999999943],[106.97574900000006,-6.339444999999955],[106.97284100000007,-6.340075999999954],[106.97283600100008,-6.33861399999995],[106.97404000000006,-6.336793999999941],[106.97417000000007,-6.335906999999963],[106.97546700000004,-6.335207999999966],[106.97463200100009,-6.333231999999953],[106.97254800000007,-6.332959999999957],[106.97248500000006,-6.331925999999953],[106.97342500000008,-6.330430999999976],[106.97436899000007,-6.330092631999946],[106.97499678200006,-6.330458624999949],[106.97517895700008,-6.331840555999975],[106.97640805400005,-6.331893287999947],[106.97702335400004,-6.331489073999933],[106.97730825000008,-6.325933576999944],[106.97666500000008,-6.323950999999966],[106.97732028300004,-6.321551236999937],[106.97633700000006,-6.319182999999953],[106.97699800100008,-6.318131998999945],[106.98094870400007,-6.315054895999936],[106.97969112700008,-6.313787094999952],[106.97431700000004,-6.312397998999927],[106.97328000000005,-6.311603999999932],[106.97281800000007,-6.310630999999944],[106.97202600000008,-6.304210999999952],[106.97098368400003,-6.304382707999935],[106.97041233400006,-6.304011701999968],[106.97102701500006,-6.302688943999954],[106.97085534600006,-6.302304943999957],[106.96837175200005,-6.303035780999949],[106.96846572900006,-6.303426134999938],[106.96956650900006,-6.302984941999966],[106.96905204200004,-6.303918845999931],[106.97039821000004,-6.304855286999953],[106.97042892900004,-6.305392912999935],[106.96994600500005,-6.305647343999965],[106.96763744900005,-6.304598117999944],[106.96741719600004,-6.303502411999943],[106.96664941100005,-6.303089322999938],[106.96609286400007,-6.304283225999939],[106.96697880700003,-6.30464706999993],[106.96700686700007,-6.305114618999937],[106.96443803300008,-6.305118326999946],[106.96457909100008,-6.30543714199996],[106.96535567500007,-6.30532896099993],[106.96653651700007,-6.306866214999957],[106.96646713700005,-6.30717027299994],[106.96532704200007,-6.306930579999971],[106.96466139600005,-6.308881455999938],[106.96514411100009,-6.31009243099993],[106.96418794800007,-6.310447675999967],[106.96368987900007,-6.310237852999933],[106.96416742400004,-6.308489817999941],[106.96291208200006,-6.309073439999963],[106.96150907700007,-6.308218762999957],[106.96102568000003,-6.309049447999939],[106.96105880200008,-6.30959232999993],[106.96180362800004,-6.309619426999973],[106.96263250600003,-6.310381777999964],[106.96347733100004,-6.31205775899997],[106.96311424000004,-6.312773887999981],[106.96150265600005,-6.312213033999967],[106.96113248600005,-6.312975207999955],[106.96218087600005,-6.313900104999959],[106.96092769300009,-6.314557787999945],[106.96117304800003,-6.315471633999948],[106.96374921200004,-6.31707993599997],[106.96357242500005,-6.318129779999936],[106.96243928200005,-6.318155584999943],[106.96206211700007,-6.320085999999947],[106.96033987900006,-6.321002452999949],[106.96024806500009,-6.321381707999933],[106.96102669800007,-6.322445171999959],[106.96197995300008,-6.32264394699996],[106.96156361200008,-6.323696129999973],[106.96166971400004,-6.325014052999961],[106.96481069500004,-6.324844146999965],[106.96379666600006,-6.326786538999954],[106.96135624400006,-6.32581212599996],[106.96079229500003,-6.326396014999943],[106.96131036800006,-6.326834205999944],[106.96159494300008,-6.328422065999973],[106.96204659700004,-6.328364384999929],[106.96190310200006,-6.327212411999938],[106.96242598000003,-6.327022417999956],[106.96356081800008,-6.328853945999981],[106.96322470100006,-6.329496778999953],[106.96204607300007,-6.329640453999957],[106.96236569100006,-6.331085989999963],[106.96112461600006,-6.33064861899993],[106.96021115500008,-6.331496003999973],[106.96037581200005,-6.333694204999972],[106.96135249000008,-6.332492068999954],[106.96239905100003,-6.333082311999931],[106.96158701300004,-6.333815929999958],[106.96184147900004,-6.335861650999959],[106.96142631700008,-6.336087121999981],[106.96123022100005,-6.335063085999934],[106.96021877000004,-6.335794586999953],[106.95946270000007,-6.335395569999946],[106.95688869600008,-6.337559619999979],[106.95710301700007,-6.339614111999936],[106.95556134700007,-6.338976928999955],[106.95502606400004,-6.340066880999927],[106.95298883800007,-6.340022890999933],[106.95305197100004,-6.342693686999951],[106.95475087100004,-6.343235409999977],[106.95495428100008,-6.343917829999953],[106.95465812600008,-6.344510276999927],[106.95226152700008,-6.344530795999958],[106.95079972100007,-6.343899043999954],[106.95024608100005,-6.344180526999935],[106.95112985500003,-6.345727290999946],[106.95114954300004,-6.346892655999966],[106.95191481400008,-6.347444742999926],[106.95213750800008,-6.348676320999971],[106.95268325200004,-6.348836925999933],[106.95336963100004,-6.348248747999946],[106.95402120200004,-6.349082571999929],[106.95375246400005,-6.350859489999948],[106.95298281000004,-6.351176240999962],[106.95275735500007,-6.349720772999944],[106.95206452600007,-6.349105262999956],[106.95032745700007,-6.35055664999993],[106.95018008800008,-6.351550172999964],[106.95222295500008,-6.352570121999975],[106.95249459400009,-6.353591008999956],[106.95198338100005,-6.353966107999952],[106.95066472800005,-6.353261102999966],[106.94957540200005,-6.354024945999981],[106.94945349800008,-6.355177447999949],[106.94800245600004,-6.356398113999944],[106.94738487900008,-6.357483591999937],[106.94755819300008,-6.358300087999964],[106.94873013200004,-6.358645877999948],[106.94766887100008,-6.358737907999966],[106.94631166900007,-6.359483619999935],[106.94608483000007,-6.359184023999944],[106.94699356900009,-6.358208442999967],[106.94574466000006,-6.358249505999936],[106.94453224600005,-6.357674209999971],[106.94394835200006,-6.358053403999975],[106.94367853300008,-6.35955093299998],[106.94464439700005,-6.35901337699994],[106.94607223300005,-6.360263389999943],[106.94716815300006,-6.36023055499993],[106.94652179900004,-6.360786049999945],[106.94674072400005,-6.361523910999949],[106.94596608100005,-6.362045441999953],[106.94607010600004,-6.36325642099996],[106.94448780600004,-6.364169473999937],[106.94488625000008,-6.365339156999937],[106.94395107700007,-6.366410522999956],[106.94418179700006,-6.366723500999967],[106.94512119500007,-6.366266415999974],[106.94553677400006,-6.36842924299998],[106.94450186500006,-6.368414005999966],[106.94347955200004,-6.369204386999968],[106.94311733400008,-6.368512991999978],[106.94344017900005,-6.367382692999968],[106.94231693800003,-6.367275925999934],[106.94214233500009,-6.369169233999969],[106.94017560800006,-6.370613822999928],[106.93861500800006,-6.370692410999936],[106.93869923200003,-6.37223645399996],[106.93950679800008,-6.371307185999967],[106.94068197100006,-6.371486481999966],[106.93951406800005,-6.372223822999956],[106.93798670800004,-6.374024619999943],[106.93806539200006,-6.374602262999929],[106.93891668900005,-6.375129158999926],[106.93821992000005,-6.377037829999949],[106.93737290200005,-6.377651485999934],[106.93801919800006,-6.378600168999981],[106.93774480200005,-6.37888251499993],[106.93593297900009,-6.378290334999974],[106.93534765300006,-6.378805407999948],[106.93631697100005,-6.380194944999971],[106.93773801300006,-6.380639322999968],[106.93647910100009,-6.38261708899995],[106.93577375000007,-6.382753700999956],[106.93514483900009,-6.381850879999945],[106.93434655000004,-6.38321835399995]]]}}]}