{"type":"FeatureCollection","properties":{"name":"Halte BisKita Trans Patriot (OSM)","sumber":"OpenStreetMap — network=Trans Bekasi Patriot (openstreetmap.org, diambil 2026-09-03)","catatan":"Halte dari OpenStreetMap. Belum disurvei lapangan tim."},"features":[{"type":"Feature","geometry":{"type":"Point","coordinates":[106.99331905,-6.2381951]},"properties":{"nama":"Samedja","urutan":1,"n_osm_node":2}},{"type":"Feature","geometry":{"type":"Point","coordinates":[106.9931076,-6.2382938]},"properties":{"nama":"Patriot Chandrabaga","urutan":2,"n_osm_node":2}},{"type":"Feature","geometry":{"type":"Point","coordinates":[106.9929196,-6.2406518]},"properties":{"nama":"Stadion","urutan":3,"n_osm_node":2}},{"type":"Feature","geometry":{"type":"Point","coordinates":[106.992823625,-6.24351095]},"properties":{"nama":"Simpang Kayuringin","urutan":4,"n_osm_node":4}},{"type":"Feature","geometry":{"type":"Point","coordinates":[106.98961675000001,-6.24827725]},"properties":{"nama":"Metropolitan Mall Bekasi","urutan":5,"n_osm_node":2}},{"type":"Feature","geometry":{"type":"Point","coordinates":[106.99195209999999,-6.2503363499999995]},"properties":{"nama":"Tol Barat","urutan":6,"n_osm_node":2}},{"type":"Feature","geometry":{"type":"Point","coordinates":[106.98969985,-6.2524905]},"properties":{"nama":"Stasiun LRT Bekasi Barat","urutan":7,"n_osm_node":2}},{"type":"Feature","geometry":{"type":"Point","coordinates":[106.98978550000001,-6.2552673500000004]},"properties":{"nama":"Revo Mall","urutan":8,"n_osm_node":2}},{"type":"Feature","geometry":{"type":"Point","coordinates":[106.99121790000001,-6.25654585]},"properties":{"nama":"Simpang Pekayon","urutan":9,"n_osm_node":2}},{"type":"Feature","geometry":{"type":"Point","coordinates":[106.99437455,-6.258915699999999]},"properties":{"nama":"Flyover Rawa Panjang","urutan":10,"n_osm_node":2}},{"type":"Feature","geometry":{"type":"Point","coordinates":[106.99485085,-6.2597774]},"properties":{"nama":"Universitas Bina Insani","urutan":11,"n_osm_node":2}},{"type":"Feature","geometry":{"type":"Point","coordinates":[106.995083575,-6.26776695]},"properties":{"nama":"Kemang Pratama Tiga","urutan":12,"n_osm_node":4}},{"type":"Feature","geometry":{"type":"Point","coordinates":[106.9931607,-6.272440425]},"properties":{"nama":"Univ Trisakti","urutan":13,"n_osm_node":4}},{"type":"Feature","geometry":{"type":"Point","coordinates":[106.9920885,-6.277074325]},"properties":{"nama":"RS Elisabeth","urutan":14,"n_osm_node":4}},{"type":"Feature","geometry":{"type":"Point","coordinates":[106.9912226,-6.279108]},"properties":{"nama":"Kantor Kecamatan Rawalumbu","urutan":15,"n_osm_node":4}},{"type":"Feature","geometry":{"type":"Point","coordinates":[106.9893042,-6.2834387]},"properties":{"nama":"Perum Sapta Taruna","urutan":16,"n_osm_node":4}},{"type":"Feature","geometry":{"type":"Point","coordinates":[106.988221325,-6.2848108]},"properties":{"nama":"Rawa Pungut","urutan":17,"n_osm_node":4}},{"type":"Feature","geometry":{"type":"Point","coordinates":[106.98481435,-6.29160895]},"properties":{"nama":"Pesona Metropolitan","urutan":18,"n_osm_node":4}},{"type":"Feature","geometry":{"type":"Point","coordinates":[106.9846425,-6.2972795999999995]},"properties":{"nama":"Kantor Kelurahan Bojong Menteng","urutan":19,"n_osm_node":2}},{"type":"Feature","geometry":{"type":"Point","coordinates":[106.9849306,-6.297364]},"properties":{"nama":"Flyover Cipendawa","urutan":20,"n_osm_node":2}},{"type":"Feature","geometry":{"type":"Point","coordinates":[106.983403475,-6.302751225]},"properties":{"nama":"Masjid At-Taqwa","urutan":21,"n_osm_node":4}},{"type":"Feature","geometry":{"type":"Point","coordinates":[106.98372789999999,-6.308784025]},"properties":{"nama":"STISIP Bekasi","urutan":22,"n_osm_node":4}},{"type":"Feature","geometry":{"type":"Point","coordinates":[106.984760625,-6.3102732249999995]},"properties":{"nama":"Simpang Sawo","urutan":23,"n_osm_node":4}},{"type":"Feature","geometry":{"type":"Point","coordinates":[106.98693589999999,-6.3133394]},"properties":{"nama":"Kantor Kecamatan Bantar Gebang","urutan":24,"n_osm_node":2}},{"type":"Feature","geometry":{"type":"Point","coordinates":[106.9871149,-6.31345645]},"properties":{"nama":"Pasar Bantar Gebang","urutan":25,"n_osm_node":2}},{"type":"Feature","geometry":{"type":"Point","coordinates":[106.9917264,-6.314027575]},"properties":{"nama":"Gerbang Vida","urutan":26,"n_osm_node":4}},{"type":"Feature","geometry":{"type":"Point","coordinates":[106.989589825,-6.321265975]},"properties":{"nama":"Cluster Kencana Vida","urutan":27,"n_osm_node":4}},{"type":"Feature","geometry":{"type":"Point","coordinates":[106.985837775,-6.3235288]},"properties":{"nama":"Jl. Tirta Utama Vida","urutan":28,"n_osm_node":4}},{"type":"Feature","geometry":{"type":"Point","coordinates":[106.98452664999999,-6.3225262]},"properties":{"nama":"Pangkalan","urutan":29,"n_osm_node":4}},{"type":"Feature","geometry":{"type":"Point","coordinates":[107.0003744,-6.3209543]},"properties":{"nama":"Pasar Alam Vida","urutan":30,"n_osm_node":2}},{"type":"Feature","geometry":{"type":"Point","coordinates":[107.001104275,-6.3178008000000005]},"properties":{"nama":"Taman Apel","urutan":31,"n_osm_node":4}},{"type":"Feature","geometry":{"type":"Point","coordinates":[107.0015584,-6.315631775]},"properties":{"nama":"Gerbang Pasar Alam Vida","urutan":32,"n_osm_node":4}}]}