{"type":"FeatureCollection","properties":{"name":"Koridor BisKita Trans Patriot (aproksimasi, OSM + OSRM)","sumber":"OpenStreetMap — network=Trans Bekasi Patriot (openstreetmap.org, diambil 2026-09-03)","catatan":"APROKSIMASI. Halte bersumber OSM; OSM tidak punya relasi rute, jadi urutan halte diinfer (nearest-neighbour dari terminus utara) lalu disnap ke jaringan jalan via OSRM. BUKAN geometri trayek resmi operator/Dishub. BUKAN hasil survei lapangan tim (beda dengan 15 halte 'biskita_survei')."},"features":[{"type":"Feature","geometry":{"type":"LineString","coordinates":[[106.99329,-6.238194],[106.993286,-6.23828],[106.993259,-6.238651],[106.993233,-6.239034],[106.993219,-6.239243],[106.993194,-6.239611],[106.993174,-6.239904],[106.993148,-6.240283],[106.993126,-6.240605],[106.993119,-6.240712],[106.993087,-6.24118],[106.993057,-6.241615],[106.992957,-6.241613],[106.992872,-6.241611],[106.992887,-6.241431],[106.992933,-6.240857],[106.992948,-6.240675],[106.99295,-6.240651],[106.992952,-6.240617],[106.992977,-6.240287],[106.992982,-6.240229],[106.99306,-6.239279],[106.99308,-6.239018],[106.993106,-6.238663],[106.993134,-6.238296],[106.993135,-6.238283],[106.99314,-6.238222],[106.993154,-6.238037],[106.993183,-6.237652],[106.993193,-6.23752],[106.993171,-6.236601],[106.993162,-6.236426],[106.993065,-6.235597],[106.993053,-6.235267],[106.993057,-6.234959],[106.99308,-6.234364],[106.993103,-6.234329],[106.99314,-6.234308],[106.993272,-6.234306],[106.993361,-6.234344],[106.993455,-6.234433],[106.99354,-6.234792],[106.993463,-6.235924],[106.993443,-6.236253],[106.993435,-6.236574],[106.993407,-6.236753],[106.993329,-6.237744],[106.993304,-6.238018],[106.993291,-6.238182],[106.993286,-6.23828],[106.993259,-6.238651],[106.993233,-6.239034],[106.993219,-6.239243],[106.993194,-6.239611],[106.993174,-6.239904],[106.993148,-6.240283],[106.993126,-6.240605],[106.993119,-6.240712],[106.993087,-6.24118],[106.993057,-6.241615],[106.992957,-6.241613],[106.992872,-6.241611],[106.992887,-6.241431],[106.992933,-6.240857],[106.992948,-6.240675],[106.99295,-6.240651],[106.99295,-6.240651],[106.992952,-6.240617],[106.992977,-6.240287],[106.992982,-6.240229],[106.99306,-6.239279],[106.99308,-6.239018],[106.993106,-6.238663],[106.993135,-6.238283],[106.99314,-6.238222],[106.993154,-6.238037],[106.993183,-6.237652],[106.993193,-6.23752],[106.993171,-6.236601],[106.993162,-6.236426],[106.993065,-6.235597],[106.993053,-6.235267],[106.993057,-6.234959],[106.99308,-6.234364],[106.993103,-6.234329],[106.99314,-6.234308],[106.993272,-6.234306],[106.993361,-6.234344],[106.993455,-6.234433],[106.99354,-6.234792],[106.993463,-6.235924],[106.993443,-6.236253],[106.993435,-6.236574],[106.993407,-6.236753],[106.993329,-6.237744],[106.993304,-6.238018],[106.993291,-6.238182],[106.993286,-6.23828],[106.993259,-6.238651],[106.993233,-6.239034],[106.993219,-6.239243],[106.993194,-6.239611],[106.993174,-6.239904],[106.993148,-6.240283],[106.993126,-6.240605],[106.993119,-6.240712],[106.993087,-6.24118],[106.993057,-6.241615],[106.99305,-6.241719],[106.993018,-6.242049],[106.992968,-6.242549],[106.992958,-6.242643],[106.992921,-6.243068],[106.992907,-6.243253],[106.992888,-6.243499],[106.992887,-6.243516],[106.992873,-6.243686],[106.992871,-6.243763],[106.992848,-6.244424],[106.992824,-6.244858],[106.992797,-6.245104],[106.992776,-6.24531],[106.992755,-6.245497],[106.992739,-6.2456],[106.992711,-6.245752],[106.992696,-6.24586],[106.992694,-6.245871],[106.992671,-6.24606],[106.992573,-6.246826],[106.992554,-6.246931],[106.992517,-6.247135],[106.992471,-6.247392],[106.992387,-6.247858],[106.992378,-6.247906],[106.992361,-6.248001],[106.992282,-6.24844],[106.992207,-6.248857],[106.992168,-6.249048],[106.992067,-6.249536],[106.992047,-6.249631],[106.992022,-6.249753],[106.992,-6.249859],[106.991991,-6.2499],[106.991964,-6.250031],[106.991922,-6.250233],[106.991904,-6.250318],[106.99189,-6.250388],[106.991846,-6.250598],[106.991827,-6.250691],[106.991811,-6.250765],[106.99179,-6.250866],[106.991698,-6.251664],[106.991656,-6.252041],[106.991635,-6.252241],[106.991577,-6.252802],[106.991563,-6.252852],[106.991542,-6.252884],[106.991503,-6.252913],[106.99142,-6.252947],[106.991381,-6.252955],[106.991287,-6.252963],[106.991199,-6.252939],[106.991092,-6.252887],[106.99106,-6.252833],[106.991045,-6.25274],[106.991066,-6.252585],[106.991089,-6.252518],[106.991177,-6.252223],[106.991383,-6.251655],[106.991589,-6.25116],[106.991609,-6.251056],[106.991656,-6.25082],[106.991716,-6.250521],[106.9918,-6.250094],[106.991845,-6.249867],[106.991888,-6.249653],[106.991906,-6.249624],[106.992024,-6.249019],[106.992089,-6.248682],[106.992181,-6.248208],[106.992206,-6.248082],[106.992208,-6.248072],[106.992203,-6.24784],[106.992182,-6.247733],[106.992112,-6.247672],[106.992055,-6.247657],[106.991591,-6.247785],[106.990439,-6.248047],[106.989612,-6.248247],[106.989611,-6.248247],[106.989499,-6.24827],[106.98944,-6.248251],[106.989394,-6.248203],[106.989373,-6.248131],[106.989322,-6.247893],[106.98929,-6.247764],[106.989346,-6.24775],[106.989421,-6.247737],[106.990509,-6.247488],[106.990591,-6.24747],[106.991034,-6.247357],[106.991591,-6.247201],[106.991915,-6.247052],[106.992442,-6.246819],[106.992573,-6.246826],[106.992554,-6.246931],[106.992517,-6.247135],[106.992471,-6.247392],[106.992387,-6.247858],[106.992378,-6.247906],[106.992361,-6.248001],[106.992282,-6.24844],[106.992207,-6.248857],[106.992168,-6.249048],[106.992067,-6.249536],[106.992047,-6.249631],[106.992022,-6.249753],[106.992,-6.249859],[106.991991,-6.2499],[106.991964,-6.250031],[106.991922,-6.250233],[106.991904,-6.250318],[106.991902,-6.250326],[106.99189,-6.250388],[106.991846,-6.250598],[106.991827,-6.250691],[106.991811,-6.250765],[106.99179,-6.250866],[106.991698,-6.251664],[106.991656,-6.252041],[106.991635,-6.252241],[106.991577,-6.252802],[106.991563,-6.252852],[106.991542,-6.252884],[106.991503,-6.252913],[106.99142,-6.252947],[106.991381,-6.252955],[106.991287,-6.252963],[106.991199,-6.252939],[106.991092,-6.252887],[106.99106,-6.252833],[106.991045,-6.25274],[106.991066,-6.252585],[106.991089,-6.252518],[106.991177,-6.252223],[106.991383,-6.251655],[106.991343,-6.251643],[106.991271,-6.251626],[106.991175,-6.251623],[106.991149,-6.251622],[106.991042,-6.251632],[106.990832,-6.251696],[106.990558,-6.251872],[106.99025,-6.252075],[106.989724,-6.252422],[106.989723,-6.252454],[106.989723,-6.252471],[106.989719,-6.252495],[106.989717,-6.252504],[106.989715,-6.252509],[106.989708,-6.252532],[106.989693,-6.252494],[106.989691,-6.25249],[106.989691,-6.252468],[106.989693,-6.25245],[106.989705,-6.252433],[106.989724,-6.252422],[106.99025,-6.252075],[106.990558,-6.251872],[106.990832,-6.251696],[106.991042,-6.251632],[106.991149,-6.251622],[106.991175,-6.251623],[106.991271,-6.251626],[106.991343,-6.251643],[106.991383,-6.251655],[106.991589,-6.25116],[106.991609,-6.251056],[106.991656,-6.25082],[106.991716,-6.250521],[106.9918,-6.250094],[106.991845,-6.249867],[106.991888,-6.249653],[106.991906,-6.249624],[106.992024,-6.249019],[106.992168,-6.249048],[106.992067,-6.249536],[106.992047,-6.249631],[106.992022,-6.249753],[106.992,-6.249859],[106.991991,-6.2499],[106.991964,-6.250031],[106.991922,-6.250233],[106.991904,-6.250318],[106.99189,-6.250388],[106.991846,-6.250598],[106.991827,-6.250691],[106.991811,-6.250765],[106.99179,-6.250866],[106.991614,-6.251595],[106.991514,-6.252079],[106.991323,-6.252964],[106.991231,-6.253344],[106.991155,-6.25369],[106.991109,-6.253865],[106.990999,-6.254331],[106.990945,-6.254577],[106.990888,-6.254819],[106.990822,-6.25515],[106.990801,-6.255358],[106.990768,-6.255516],[106.990734,-6.255701],[106.990747,-6.255829],[106.990769,-6.255937],[106.990812,-6.256094],[106.990821,-6.256155],[106.990814,-6.256201],[106.990808,-6.256239],[106.990715,-6.255997],[106.990699,-6.255873],[106.990679,-6.255678],[106.99068,-6.255575],[106.99068,-6.255556],[106.990546,-6.25549],[106.99034,-6.255458],[106.990309,-6.255453],[106.989943,-6.255415],[106.989673,-6.255391],[106.989577,-6.255377],[106.989542,-6.255363],[106.989523,-6.255345],[106.989527,-6.255307],[106.989551,-6.255288],[106.989786,-6.25528],[106.989787,-6.25528],[106.989954,-6.255275],[106.990093,-6.25527],[106.990296,-6.255277],[106.990469,-6.255286],[106.990487,-6.255287],[106.990569,-6.255288],[106.990705,-6.255315],[106.990749,-6.254997],[106.990796,-6.254791],[106.990989,-6.253975],[106.991026,-6.253827],[106.991219,-6.25297],[106.991327,-6.252466],[106.991416,-6.252003],[106.991557,-6.251341],[106.991589,-6.25116],[106.991609,-6.251056],[106.991656,-6.25082],[106.991716,-6.250521],[106.9918,-6.250094],[106.991845,-6.249867],[106.991888,-6.249653],[106.991906,-6.249624],[106.992024,-6.249019],[106.992168,-6.249048],[106.992067,-6.249536],[106.992047,-6.249631],[106.992022,-6.249753],[106.992,-6.249859],[106.991991,-6.2499],[106.991964,-6.250031],[106.991922,-6.250233],[106.991904,-6.250318],[106.99189,-6.250388],[106.991846,-6.250598],[106.991827,-6.250691],[106.991811,-6.250765],[106.99179,-6.250866],[106.991614,-6.251595],[106.991514,-6.252079],[106.991323,-6.252964],[106.991231,-6.253344],[106.991155,-6.25369],[106.991109,-6.253865],[106.990999,-6.254331],[106.990945,-6.254577],[106.990888,-6.254819],[106.990822,-6.25515],[106.990801,-6.255358],[106.990796,-6.255451],[106.990788,-6.255521],[106.990788,-6.255689],[106.9908,-6.25577],[106.990818,-6.255862],[106.990836,-6.255934],[106.990855,-6.255974],[106.990878,-6.256039],[106.990925,-6.256138],[106.991021,-6.256313],[106.99113,-6.256485],[106.991195,-6.256557],[106.991199,-6.256562],[106.991269,-6.256648],[106.991296,-6.25668],[106.991377,-6.25679],[106.991442,-6.256853],[106.991563,-6.256974],[106.991736,-6.257117],[106.991926,-6.257255],[106.992231,-6.257487],[106.992448,-6.257642],[106.992644,-6.257779],[106.99276,-6.257857],[106.992981,-6.258014],[106.993432,-6.258328],[106.993962,-6.258674],[106.994364,-6.258921],[106.99437,-6.258925],[106.994429,-6.258961],[106.994633,-6.259067],[106.994705,-6.259095],[106.994865,-6.259191],[106.994963,-6.259265],[106.995042,-6.259312],[106.995005,-6.259428],[106.995005,-6.25974],[106.99501,-6.25979],[106.995019,-6.259921],[106.995064,-6.260404],[106.995075,-6.26052],[106.995105,-6.26093],[106.995154,-6.261099],[106.995193,-6.26155],[106.995219,-6.261854],[106.995217,-6.262059],[106.99519,-6.262109],[106.99519,-6.262387],[106.995208,-6.262678],[106.995215,-6.262776],[106.995252,-6.2634],[106.995255,-6.263487],[106.995186,-6.263488],[106.995182,-6.263379],[106.995129,-6.262694],[106.995117,-6.262532],[106.995105,-6.262376],[106.995075,-6.262184],[106.995064,-6.262049],[106.995035,-6.261716],[106.994944,-6.260637],[106.994892,-6.259936],[106.99488,-6.259775],[106.99488,-6.259769],[106.994908,-6.25975],[106.994941,-6.259741],[106.994975,-6.259744],[106.994987,-6.259752],[106.99501,-6.25979],[106.995019,-6.259921],[106.995064,-6.260404],[106.995075,-6.26052],[106.995105,-6.26093],[106.995154,-6.261099],[106.995193,-6.26155],[106.995219,-6.261854],[106.995217,-6.262059],[106.99519,-6.262109],[106.99519,-6.262387],[106.995208,-6.262678],[106.995215,-6.262776],[106.995252,-6.2634],[106.995255,-6.263487],[106.995271,-6.264047],[106.995274,-6.26416],[106.995303,-6.264702],[106.995316,-6.264948],[106.995319,-6.265007],[106.995346,-6.265624],[106.995356,-6.265842],[106.995305,-6.266613],[106.995304,-6.266625],[106.995209,-6.267316],[106.995198,-6.267394],[106.995137,-6.267673],[106.995121,-6.267727],[106.995107,-6.267774],[106.995066,-6.267911],[106.995052,-6.267959],[106.995011,-6.268074],[106.994705,-6.268939],[106.994537,-6.269456],[106.994514,-6.269522],[106.994328,-6.27005],[106.994155,-6.270539],[106.994144,-6.270565],[106.9941,-6.27068],[106.994051,-6.270823],[106.993867,-6.271331],[106.993841,-6.2714],[106.993736,-6.271595],[106.993612,-6.271822],[106.993258,-6.272356],[106.993197,-6.272445],[106.993188,-6.272458],[106.993134,-6.272535],[106.99307,-6.272639],[106.992998,-6.27274],[106.992918,-6.272859],[106.992732,-6.273097],[106.992561,-6.273345],[106.992493,-6.273475],[106.992488,-6.273485],[106.992456,-6.27356],[106.992436,-6.27365],[106.992405,-6.27381],[106.99239,-6.274098],[106.992373,-6.27456],[106.992372,-6.274768],[106.992364,-6.275187],[106.992363,-6.275319],[106.992359,-6.275693],[106.992353,-6.275833],[106.992347,-6.275989],[106.992324,-6.276163],[106.992294,-6.27639],[106.992257,-6.276658],[106.992228,-6.276802],[106.992214,-6.276869],[106.992145,-6.277076],[106.99214,-6.27709],[106.992133,-6.277113],[106.992049,-6.277339],[106.991989,-6.27748],[106.991945,-6.277606],[106.991818,-6.277887],[106.991677,-6.278198],[106.991616,-6.278335],[106.991575,-6.278428],[106.991525,-6.278538],[106.99141,-6.278776],[106.991323,-6.27887],[106.99129,-6.278934],[106.991262,-6.279008],[106.991234,-6.279075],[106.991221,-6.279107],[106.991212,-6.279128],[106.991135,-6.279314],[106.991065,-6.279477],[106.991009,-6.2796],[106.990973,-6.279671],[106.990933,-6.27976],[106.990815,-6.28003],[106.99071,-6.280281],[106.990603,-6.280534],[106.990507,-6.280756],[106.990428,-6.280935],[106.990357,-6.281086],[106.990322,-6.281164],[106.990247,-6.281328],[106.990138,-6.281561],[106.990115,-6.281611],[106.989917,-6.282086],[106.989809,-6.28231],[106.989739,-6.282462],[106.989546,-6.28289],[106.989496,-6.283008],[106.989424,-6.283176],[106.989398,-6.28323],[106.989369,-6.283292],[106.989319,-6.283397],[106.989302,-6.283434],[106.9893,-6.283437],[106.989289,-6.283463],[106.989266,-6.283511],[106.989219,-6.283602],[106.989121,-6.28375],[106.988923,-6.284019],[106.988708,-6.284271],[106.988649,-6.284333],[106.988545,-6.284443],[106.988385,-6.284612],[106.988238,-6.284783],[106.988218,-6.284808],[106.988205,-6.284824],[106.988143,-6.284899],[106.987918,-6.285162],[106.987683,-6.285419],[106.987477,-6.285657],[106.987446,-6.285688],[106.987114,-6.28605],[106.986968,-6.28623],[106.986858,-6.286395],[106.986764,-6.286532],[106.986675,-6.28666],[106.986632,-6.286736],[106.986424,-6.287058],[106.986169,-6.287525],[106.986125,-6.287604],[106.985975,-6.287863],[106.985824,-6.28814],[106.985668,-6.288424],[106.985522,-6.288698],[106.985416,-6.288878],[106.985333,-6.289027],[106.985252,-6.289179],[106.98521,-6.289317],[106.985176,-6.289456],[106.985113,-6.289699],[106.985074,-6.289895],[106.98504,-6.290055],[106.984942,-6.290708],[106.984902,-6.29101],[106.984848,-6.291357],[106.984831,-6.291472],[106.984818,-6.29155],[106.984811,-6.291604],[106.98481,-6.291608],[106.984804,-6.291654],[106.984784,-6.291803],[106.984741,-6.292107],[106.984726,-6.292214],[106.984713,-6.292331],[106.984615,-6.293058],[106.984586,-6.29337],[106.984583,-6.293515],[106.984578,-6.29368],[106.984604,-6.294084],[106.984612,-6.29419],[106.984624,-6.294461],[106.984628,-6.294469],[106.984763,-6.294769],[106.98485,-6.295696],[106.984855,-6.295903],[106.984884,-6.296208],[106.984912,-6.296465],[106.984923,-6.296733],[106.984922,-6.297165],[106.984897,-6.297351],[106.984752,-6.298169],[106.984742,-6.298213],[106.984736,-6.298238],[106.984642,-6.298243],[106.98451,-6.298262],[106.984527,-6.298154],[106.98464,-6.297499],[106.984672,-6.297284],[106.984673,-6.297274],[106.984681,-6.297195],[106.984704,-6.296513],[106.984607,-6.295571],[106.984574,-6.295217],[106.984541,-6.294684],[106.984624,-6.294461],[106.984628,-6.294469],[106.984763,-6.294769],[106.98485,-6.295696],[106.984855,-6.295903],[106.984884,-6.296208],[106.984912,-6.296465],[106.984923,-6.296733],[106.984922,-6.297165],[106.984897,-6.297351],[106.984896,-6.297358],[106.984752,-6.298169],[106.984742,-6.298213],[106.984736,-6.298238],[106.984646,-6.298727],[106.984631,-6.298811],[106.98453,-6.299154],[106.984461,-6.299407],[106.984411,-6.29959],[106.984346,-6.299831],[106.984241,-6.300164],[106.984162,-6.300411],[106.98402,-6.300798],[106.983925,-6.301098],[106.983814,-6.301244],[106.983729,-6.301288],[106.983694,-6.301365],[106.983624,-6.301563],[106.983525,-6.301882],[106.983467,-6.302147],[106.983436,-6.302306],[106.98342,-6.302462],[106.983405,-6.302711],[106.983403,-6.302747],[106.983403,-6.302751],[106.9834,-6.302787],[106.983399,-6.302815],[106.983403,-6.302994],[106.983404,-6.303387],[106.983411,-6.303514],[106.983438,-6.304188],[106.983449,-6.304415],[106.983451,-6.304488],[106.983467,-6.304835],[106.983485,-6.30524],[106.983491,-6.305379],[106.983494,-6.305555],[106.983492,-6.305603],[106.983496,-6.305744],[106.9835,-6.305885],[106.983504,-6.306027],[106.983506,-6.306092],[106.983508,-6.306139],[106.983518,-6.306522],[106.98352,-6.306599],[106.98353,-6.30695],[106.983544,-6.307254],[106.983545,-6.307334],[106.983549,-6.307405],[106.98355,-6.307467],[106.983563,-6.307764],[106.983569,-6.307987],[106.983584,-6.308276],[106.983609,-6.308437],[106.983649,-6.308587],[106.983693,-6.30867],[106.983725,-6.308738],[106.983743,-6.308777],[106.983758,-6.308809],[106.983795,-6.308887],[106.983893,-6.309037],[106.983957,-6.309139],[106.984513,-6.309878],[106.984748,-6.310234],[106.984769,-6.310266],[106.984769,-6.310266],[106.984787,-6.310293],[106.984874,-6.310425],[106.985078,-6.310716],[106.98511,-6.310756],[106.985212,-6.310904],[106.985495,-6.311288],[106.985767,-6.311676],[106.986136,-6.312179],[106.986169,-6.312222],[106.986782,-6.313042],[106.986829,-6.313104],[106.986966,-6.313298],[106.986976,-6.313314],[106.987073,-6.313464],[106.987079,-6.313475],[106.987119,-6.313551],[106.987178,-6.313683],[106.98722,-6.31378],[106.98725,-6.313875],[106.987301,-6.314045],[106.987347,-6.314219],[106.987363,-6.314326],[106.987374,-6.314418],[106.987382,-6.314528],[106.987385,-6.314641],[106.987378,-6.314763],[106.987255,-6.314763],[106.987135,-6.31474],[106.987021,-6.314693],[106.986919,-6.314626],[106.986832,-6.31454],[106.986763,-6.314438],[106.986715,-6.314326],[106.986691,-6.314207],[106.98669,-6.314087],[106.986713,-6.313968],[106.986758,-6.313856],[106.986824,-6.313755],[106.986908,-6.313668],[106.987008,-6.313599],[106.987119,-6.313551],[106.987073,-6.313464],[106.986966,-6.313298],[106.986829,-6.313104],[106.986782,-6.313042],[106.986169,-6.312222],[106.986136,-6.312179],[106.985767,-6.311676],[106.985495,-6.311288],[106.985212,-6.310904],[106.98511,-6.310756],[106.985686,-6.311107],[106.986205,-6.311343],[106.986573,-6.311502],[106.986718,-6.311578],[106.987013,-6.311776],[106.987161,-6.311853],[106.987401,-6.311964],[106.987628,-6.312047],[106.988475,-6.312352],[106.989141,-6.312591],[106.989258,-6.31264],[106.989468,-6.312732],[106.989723,-6.312846],[106.99058,-6.31323],[106.990936,-6.313376],[106.991115,-6.31346],[106.991408,-6.313597],[106.991426,-6.313607],[106.991738,-6.313779],[106.991895,-6.313862],[106.991776,-6.314053],[106.99177,-6.314061],[106.991602,-6.314281],[106.991555,-6.314356],[106.99147,-6.314491],[106.991291,-6.314712],[106.991247,-6.314784],[106.991217,-6.314851],[106.991199,-6.314928],[106.990995,-6.31584],[106.990764,-6.316863],[106.990552,-6.317802],[106.990523,-6.317906],[106.990491,-6.318009],[106.990461,-6.318084],[106.990437,-6.318148],[106.990424,-6.318215],[106.990414,-6.318345],[106.990435,-6.318493],[106.990477,-6.318712],[106.990525,-6.318947],[106.990527,-6.319047],[106.990515,-6.319114],[106.990487,-6.319187],[106.990454,-6.319267],[106.990379,-6.319369],[106.990002,-6.319748],[106.98991,-6.319868],[106.989892,-6.319903],[106.98986,-6.320023],[106.989812,-6.320273],[106.989671,-6.320871],[106.98962,-6.321105],[106.989608,-6.321158],[106.989585,-6.321265],[106.98957,-6.321333],[106.989553,-6.32141],[106.989542,-6.321458],[106.989424,-6.322015],[106.989351,-6.322297],[106.989325,-6.322435],[106.989318,-6.322539],[106.98931,-6.322617],[106.989316,-6.322694],[106.989337,-6.32278],[106.989386,-6.322896],[106.989421,-6.322994],[106.98951,-6.323026],[106.989495,-6.323066],[106.989457,-6.323167],[106.989466,-6.323188],[106.989468,-6.323212],[106.989461,-6.323235],[106.989447,-6.323254],[106.989427,-6.323267],[106.989404,-6.323273],[106.98938,-6.32327],[106.989359,-6.323259],[106.989342,-6.323242],[106.989333,-6.32322],[106.989331,-6.323197],[106.989137,-6.323167],[106.988986,-6.323163],[106.988777,-6.323151],[106.988578,-6.323112],[106.988397,-6.32306],[106.988187,-6.323003],[106.987972,-6.322983],[106.987725,-6.322963],[106.987524,-6.322971],[106.987354,-6.322987],[106.987344,-6.323038],[106.98732,-6.323092],[106.987275,-6.32315],[106.987249,-6.323212],[106.987238,-6.32326],[106.987232,-6.323331],[106.987248,-6.323483],[106.987332,-6.324155],[106.987381,-6.324529],[106.987379,-6.324597],[106.987355,-6.324637],[106.987318,-6.324683],[106.987245,-6.324717],[106.986571,-6.324807],[106.986503,-6.324801],[106.986454,-6.324777],[106.986419,-6.324727],[106.986172,-6.324277],[106.986112,-6.324203],[106.986014,-6.32412],[106.98573,-6.323917],[106.985654,-6.323859],[106.985571,-6.323795],[106.985511,-6.323739],[106.985432,-6.323638],[106.985378,-6.323543],[106.985345,-6.323466],[106.985463,-6.323218],[106.985699,-6.323212],[106.985752,-6.323312],[106.985771,-6.323329],[106.985801,-6.323335],[106.98587,-6.32333],[106.98609,-6.323304],[106.986128,-6.32332],[106.986155,-6.323332],[106.986194,-6.323335],[106.986385,-6.323308],[106.986194,-6.323335],[106.986155,-6.323332],[106.986128,-6.32332],[106.98609,-6.323304],[106.98587,-6.32333],[106.985824,-6.323333],[106.985801,-6.323335],[106.985771,-6.323329],[106.985752,-6.323312],[106.985699,-6.323212],[106.986061,-6.323164],[106.986799,-6.323066],[106.986919,-6.323038],[106.986978,-6.32301],[106.987014,-6.322974],[106.98706,-6.322927],[106.987103,-6.322875],[106.98717,-6.322844],[106.987214,-6.322846],[106.987273,-6.322868],[106.987318,-6.32291],[106.987354,-6.322987],[106.987344,-6.323038],[106.98732,-6.323092],[106.987275,-6.32315],[106.987249,-6.323212],[106.987238,-6.32326],[106.987232,-6.323331],[106.987248,-6.323483],[106.987332,-6.324155],[106.987381,-6.324529],[106.987379,-6.324597],[106.987355,-6.324637],[106.987318,-6.324683],[106.987245,-6.324717],[106.986571,-6.324807],[106.986503,-6.324801],[106.986454,-6.324777],[106.986419,-6.324727],[106.986172,-6.324277],[106.986112,-6.324203],[106.986014,-6.32412],[106.98573,-6.323917],[106.985654,-6.323859],[106.985571,-6.323795],[106.985511,-6.323739],[106.985432,-6.323638],[106.985378,-6.323543],[106.985345,-6.323466],[106.985252,-6.323408],[106.98512,-6.323315],[106.985019,-6.32327],[106.98492,-6.323227],[106.984776,-6.323176],[106.984672,-6.323157],[106.984509,-6.323112],[106.984335,-6.323077],[106.984375,-6.322964],[106.984411,-6.322855],[106.984479,-6.322652],[106.984493,-6.322602],[106.98452,-6.32253],[106.984522,-6.322524],[106.984528,-6.322505],[106.984611,-6.32226],[106.984632,-6.322207],[106.984691,-6.322042],[106.984735,-6.321916],[106.984866,-6.321508],[106.984883,-6.321453],[106.984931,-6.321296],[106.984951,-6.321233],[106.985023,-6.321013],[106.98514,-6.320658],[106.98523,-6.320422],[106.985288,-6.320219],[106.985313,-6.320128],[106.98534,-6.32004],[106.98537,-6.31994],[106.985427,-6.31974],[106.985457,-6.319589],[106.985496,-6.319374],[106.985526,-6.319233],[106.98556,-6.319038],[106.985595,-6.318864],[106.985675,-6.318527],[106.985708,-6.31839],[106.985742,-6.318251],[106.985807,-6.317975],[106.985858,-6.317848],[106.985885,-6.317778],[106.98592,-6.317685],[106.985967,-6.317582],[106.986021,-6.317469],[106.986111,-6.317303],[106.98623,-6.317098],[106.986277,-6.317027],[106.986352,-6.316898],[106.986438,-6.316774],[106.986496,-6.316686],[106.986545,-6.316586],[106.986591,-6.316498],[106.986648,-6.316389],[106.98668,-6.316348],[106.986737,-6.316267],[106.986813,-6.316162],[106.986866,-6.31608],[106.986921,-6.315981],[106.986986,-6.315874],[106.987032,-6.315786],[106.987113,-6.315662],[106.987186,-6.315495],[106.987245,-6.31536],[106.987285,-6.315273],[106.987326,-6.315115],[106.987355,-6.314922],[106.987378,-6.314763],[106.987385,-6.314641],[106.987382,-6.314528],[106.987374,-6.314418],[106.987363,-6.314326],[106.987347,-6.314219],[106.987301,-6.314045],[106.98725,-6.313875],[106.98722,-6.31378],[106.987178,-6.313683],[106.987119,-6.313551],[106.987073,-6.313464],[106.986966,-6.313298],[106.986829,-6.313104],[106.986782,-6.313042],[106.986169,-6.312222],[106.986136,-6.312179],[106.985767,-6.311676],[106.985495,-6.311288],[106.985212,-6.310904],[106.98511,-6.310756],[106.985686,-6.311107],[106.986205,-6.311343],[106.986573,-6.311502],[106.986718,-6.311578],[106.987013,-6.311776],[106.987161,-6.311853],[106.987401,-6.311964],[106.987628,-6.312047],[106.988475,-6.312352],[106.989141,-6.312591],[106.989258,-6.31264],[106.989468,-6.312732],[106.989723,-6.312846],[106.99058,-6.31323],[106.990936,-6.313376],[106.991115,-6.31346],[106.991408,-6.313597],[106.991426,-6.313607],[106.991738,-6.313779],[106.991895,-6.313862],[106.992304,-6.314075],[106.992567,-6.314218],[106.992673,-6.314258],[106.992714,-6.314251],[106.992751,-6.314236],[106.992784,-6.314198],[106.992865,-6.314088],[106.992899,-6.314051],[106.992934,-6.314022],[106.992969,-6.314008],[106.993005,-6.314003],[106.993052,-6.314007],[106.993098,-6.314014],[106.993151,-6.314028],[106.993218,-6.314055],[106.993466,-6.314183],[106.993758,-6.314335],[106.994033,-6.314484],[106.994099,-6.314525],[106.994362,-6.314651],[106.994407,-6.314667],[106.994457,-6.314674],[106.994513,-6.314675],[106.994561,-6.314673],[106.994624,-6.314664],[106.994675,-6.314652],[106.994741,-6.314623],[106.995152,-6.314342],[106.995242,-6.314295],[106.995327,-6.314265],[106.995428,-6.314253],[106.99562,-6.314255],[106.995697,-6.314262],[106.995802,-6.314277],[106.996136,-6.314345],[106.996362,-6.31441],[106.996466,-6.314447],[106.996643,-6.314502],[106.996833,-6.314554],[106.997026,-6.314601],[106.997184,-6.314642],[106.997426,-6.314712],[106.997732,-6.314805],[106.997793,-6.314823],[106.99784,-6.314839],[106.997958,-6.314877],[106.998151,-6.314932],[106.998305,-6.314977],[106.998502,-6.31504],[106.998864,-6.315172],[106.999198,-6.315289],[106.999494,-6.315391],[107.000457,-6.315714],[107.000632,-6.315733],[107.000775,-6.315735],[107.000908,-6.315723],[107.000968,-6.315714],[107.001045,-6.315685],[107.001238,-6.315588],[107.001386,-6.315478],[107.0015,-6.3154],[107.00161,-6.315601],[107.001618,-6.315617],[107.001658,-6.315689],[107.001669,-6.315753],[107.001582,-6.316606],[107.001563,-6.31676],[107.001541,-6.316887],[107.00152,-6.316981],[107.001481,-6.317075],[107.001402,-6.317215],[107.001343,-6.317308],[107.001281,-6.317405],[107.001198,-6.317581],[107.001165,-6.31769],[107.001162,-6.317784],[107.001152,-6.318096],[107.001114,-6.318437],[107.001039,-6.319129],[107.000965,-6.319676],[107.000952,-6.319733],[107.00094,-6.31975],[107.000737,-6.32018],[107.000767,-6.320218],[107.000785,-6.320262],[107.000789,-6.32031],[107.000781,-6.320352],[107.000757,-6.320397],[107.000724,-6.32043],[107.000683,-6.320453],[107.000637,-6.320463],[107.00059,-6.32046],[107.000326,-6.320902],[107.000315,-6.32092],[107.000063,-6.321353],[106.999685,-6.322004],[106.999675,-6.322021],[106.999223,-6.322787],[106.998941,-6.323228],[106.998874,-6.323196],[106.999158,-6.322709],[106.999325,-6.322439],[106.999661,-6.32183],[106.999939,-6.321349],[106.999948,-6.321334],[107.000198,-6.320897],[107.000442,-6.320516],[107.000508,-6.320415],[107.00048,-6.320378],[107.000464,-6.320335],[107.00046,-6.320289],[107.00047,-6.320244],[107.000492,-6.320203],[107.000524,-6.32017],[107.000564,-6.320147],[107.000609,-6.320136],[107.000656,-6.320139],[107.000743,-6.319969],[107.00083,-6.319722],[107.000855,-6.319645],[107.000922,-6.319116],[107.00097,-6.31866],[107.001049,-6.317916],[107.001053,-6.317799],[107.001053,-6.317794],[107.001054,-6.317747],[107.001069,-6.31765],[107.001112,-6.31753],[107.001172,-6.317393],[107.001392,-6.317018],[107.001438,-6.316877],[107.001476,-6.316637],[107.001569,-6.315756],[107.00151,-6.315662]]},"properties":{"n_halte":32,"aproksimasi":true}}]}